{
    "links": {
        "self": "http://www.neowsapp.com/rest/v1/neo/3581668?api_key=iIulBulltgU6a56xZRHN4H3l9WmuAYTsLGpBGhQ2"
    },
    "id": "3581668",
    "neo_reference_id": "3581668",
    "name": "(2011 SE248)",
    "designation": "2011 SE248",
    "nasa_jpl_url": "http://ssd.jpl.nasa.gov/sbdb.cgi?sstr=3581668",
    "absolute_magnitude_h": 22.4,
    "estimated_diameter": {
        "kilometers": {
            "estimated_diameter_min": 0.0880146521,
            "estimated_diameter_max": 0.1968067451
        },
        "meters": {
            "estimated_diameter_min": 88.0146520901,
            "estimated_diameter_max": 196.8067450894
        },
        "miles": {
            "estimated_diameter_min": 0.0546897524,
            "estimated_diameter_max": 0.122290004
        },
        "feet": {
            "estimated_diameter_min": 288.7619911632,
            "estimated_diameter_max": 645.6914415591
        }
    },
    "is_potentially_hazardous_asteroid": false,
    "close_approach_data": [
        {
            "close_approach_date": "2011-09-21",
            "close_approach_date_full": "2011-Sep-21 20:37",
            "epoch_date_close_approach": 1316637420000,
            "relative_velocity": {
                "kilometers_per_second": "4.7768103007",
                "kilometers_per_hour": "17196.5170824082",
                "miles_per_hour": "10685.2469615664"
            },
            "miss_distance": {
                "astronomical": "0.1779225714",
                "lunar": "69.2118802746",
                "kilometers": "26616837.706362918",
                "miles": "16538936.0300795484"
            },
            "orbiting_body": "Earth"
        }
    ],
    "orbital_data": {
        "orbit_id": "12",
        "orbit_determination_date": "2017-04-06 08:52:35",
        "first_observation_date": "2011-09-21",
        "last_observation_date": "2011-11-02",
        "data_arc_in_days": 42,
        "observations_used": 45,
        "orbit_uncertainty": "7",
        "minimum_orbit_intersection": ".185135",
        "jupiter_tisserand_invariant": "3.382",
        "epoch_osculation": "2459000.5",
        "eccentricity": ".4958867019480627",
        "semi_major_axis": "2.343328210388982",
        "inclination": "5.01515968357313",
        "ascending_node_longitude": "210.3455187554312",
        "orbital_period": "1310.231716662036",
        "perihelion_distance": "1.181302912557334",
        "perihelion_argument": "146.4591193983078",
        "aphelion_distance": "3.50535350822063",
        "perihelion_time": "2458444.843462282332",
        "mean_anomaly": "152.6725013862248",
        "mean_motion": ".2747605598474908",
        "equinox": "J2000",
        "orbit_class": {
            "orbit_class_type": "AMO",
            "orbit_class_description": "Near-Earth asteroid orbits similar to that of 1221 Amor",
            "orbit_class_range": "1.017 AU < q (perihelion) < 1.3 AU"
        }
    },
    "is_sentry_object": false
}